47264,ONEWEB-0118,2020,109.72,148.0,+,87.9,Active,1,LEO,Russia,UK,Commercial,Communications,Soyuz,1 47264U 20100G   23350.93358785 -.00000481  00000+0 -13723-2 0  9999,2 47264  87.8998 172.2987 0001981  78.1276 282.0075 13.12443148144936,13.12443148,0.0001981,LEO
47265,ONEWEB-0119,2020,109.72,148.0,+,87.9,Active,1,LEO,Russia,UK,Commercial,Communications,Soyuz,1 47265U 20100H   23351.03842790  .00000458  00000+0  12391-2 0  9998,2 47265  87.8999 172.3162 0001497  96.9816 263.1483 13.12443427144926,13.12443427,0.0001497,LEO
47266,ONEWEB-0120,2020,109.72,148.0,+,87.9,Active,1,LEO,Russia,UK,Commercial,Communications,Soyuz,1 47266U 20100J   23351.06780137 -.00000410  00000+0 -11742-2 0  9997,2 47266  87.9002 172.3003 0001686  86.4285 273.7036 13.12444897144957,13.12444897,0.0001686,LEO
47267,ONEWEB-0121,2020,109.72,148.0,+,87.9,Active,1,LEO,Russia,UK,Commercial,Communications,Soyuz,1 47267U 20100K   23350.89707058  .00000231  00000+0  60544-3 0  9993,2 47267  87.8996 172.3312 0001346  95.5860 264.5422 13.12439869144843,13.12439869,0.0001346,LEO
47268,ONEWEB-0122,2020,109.72,148.0,+,87.9,Active,1,LEO,Russia,UK,Commercial,Communications,Soyuz,1 47268U 20100L   23350.58721971  .00000342  00000+0  91414-3 0  9993,2 47268  87.8996 172.3971 0001587  93.0832 267.0478 13.12440500144713,13.124405,0.0001587,LEO
47269,ONEWEB-0123,2020,109.72,148.0,+,87.9,Active,1,LEO,Russia,UK,Commercial,Communications,Soyuz,1 47269U 20100M   23350.88754168  .00000522  00000+0  14170-2 0  9994,2 47269  87.9001 172.3450 0001559  93.3998 266.7309 13.12441875144893,13.12441875,0.0001559,LEO
47270,ONEWEB-0124,2020,109.72,148.0,+,87.9,Active,1,LEO,Russia,UK,Commercial,Communications,Soyuz,1 47270U 20100N   23351.02891073  .00000283  00000+0  75244-3 0  9994,2 47270  87.9000 172.3126 0001330 103.9871 256.1406 13.12441270144798,13.1244127,0.000133,LEO
47271,ONEWEB-0125,2020,109.72,148.0,+,87.9,Active,1,LEO,Russia,UK,Commercial,Communications,Soyuz,1 47271U 20100P   23351.00348915 -.00000381  00000+0 -10945-2 0  9992,2 47271  87.9001 172.2747 0001321  74.4476 285.6798 13.12442719144858,13.12442719,0.0001321,LEO
